{
  "type": "FeatureCollection",
  "features": [
    {
      "type": "Feature",
      "properties": {
        "norad_id": 29798,
        "name": "FENGYUN 1C DEB",
        "group": "fengyun-1c-debris",
        "lat": 10.963606757427604,
        "lon": 43.238096452525724,
        "alt_km": 886.9253364652777,
        "timestamp": "2025-12-07T05:38:10.175625+00:00",
        "meta_object_name": "FENGYUN 1C DEB",
        "meta_object_id": "1999-025CQ",
        "meta_epoch": "2025-12-06T03:58:11.531136",
        "meta_mean_motion": 13.99528753,
        "meta_eccentricity": 0.01113467,
        "meta_inclination": 99.2957,
        "meta_ra_of_asc_node": 43.9708,
        "meta_arg_of_pericenter": 290.4719,
        "meta_mean_anomaly": 94.2897,
        "meta_ephemeris_type": 0,
        "meta_classification_type": "U",
        "meta_norad_cat_id": 29798,
        "meta_element_set_no": 999,
        "meta_rev_at_epoch": 95833,
        "meta_bstar": 0.0022051857,
        "meta_mean_motion_dot": 3.347e-05,
        "meta_mean_motion_ddot": 0,
        "tle_line1": "1 29798U 99025CQ  25340.16541124  .00003347  00000+0  22052-2 0  9997",
        "tle_line2": "2 29798  99.2957  43.9708 0111346 290.4719  94.2897 13.99528753958336"
      },
      "geometry": {
        "type": "Point",
        "coordinates": [
          43.238096452525724,
          10.963606757427604
        ]
      }
    },
    {
      "type": "Feature",
      "properties": {
        "norad_id": 29800,
        "name": "FENGYUN 1C DEB",
        "group": "fengyun-1c-debris",
        "lat": -16.898271981985445,
        "lon": -179.16800853669352,
        "alt_km": 835.3900854967978,
        "timestamp": "2025-12-07T05:38:10.175635+00:00",
        "meta_object_name": "FENGYUN 1C DEB",
        "meta_object_id": "1999-025CS",
        "meta_epoch": "2025-12-05T13:58:13.821024",
        "meta_mean_motion": 13.98505687,
        "meta_eccentricity": 0.01332695,
        "meta_inclination": 98.2902,
        "meta_ra_of_asc_node": 1.8756,
        "meta_arg_of_pericenter": 247.3523,
        "meta_mean_anomaly": 274.4096,
        "meta_ephemeris_type": 0,
        "meta_classification_type": "U",
        "meta_norad_cat_id": 29800,
        "meta_element_set_no": 999,
        "meta_rev_at_epoch": 95476,
        "meta_bstar": 0.0030193564,
        "meta_mean_motion_dot": 4.629e-05,
        "meta_mean_motion_ddot": 0,
        "tle_line1": "1 29800U 99025CS  25339.58210441  .00004629  00000+0  30194-2 0  9990",
        "tle_line2": "2 29800  98.2902   1.8756 0133269 247.3523 274.4096 13.98505687954763"
      },
      "geometry": {
        "type": "Point",
        "coordinates": [
          -179.16800853669352,
          -16.898271981985445
        ]
      }
    },
    {
      "type": "Feature",
      "properties": {
        "norad_id": 29801,
        "name": "FENGYUN 1C DEB",
        "group": "fengyun-1c-debris",
        "lat": 74.06194443808978,
        "lon": 94.9746503834886,
        "alt_km": 838.6444015220868,
        "timestamp": "2025-12-07T05:38:10.175645+00:00",
        "meta_object_name": "FENGYUN 1C DEB",
        "meta_object_id": "1999-025CT",
        "meta_epoch": "2025-12-06T16:02:15.055584",
        "meta_mean_motion": 14.35885366,
        "meta_eccentricity": 0.01029563,
        "meta_inclination": 98.7949,
        "meta_ra_of_asc_node": 241.5685,
        "meta_arg_of_pericenter": 285.4749,
        "meta_mean_anomaly": 130.587,
        "meta_ephemeris_type": 0,
        "meta_classification_type": "U",
        "meta_norad_cat_id": 29801,
        "meta_element_set_no": 999,
        "meta_rev_at_epoch": 98854,
        "meta_bstar": 0.0003862599,
        "meta_mean_motion_dot": 1.14e-05,
        "meta_mean_motion_ddot": 0,
        "tle_line1": "1 29801U 99025CT  25340.66822981  .00001140  00000+0  38626-3 0  9994",
        "tle_line2": "2 29801  98.7949 241.5685 0102956 285.4749 130.5870 14.35885366988548"
      },
      "geometry": {
        "type": "Point",
        "coordinates": [
          94.9746503834886,
          74.06194443808978
        ]
      }
    },
    {
      "type": "Feature",
      "properties": {
        "norad_id": 29802,
        "name": "FENGYUN 1C DEB",
        "group": "fengyun-1c-debris",
        "lat": -73.1153120596942,
        "lon": 120.0973964999665,
        "alt_km": 685.1578738718817,
        "timestamp": "2025-12-07T05:38:10.175655+00:00",
        "meta_object_name": "FENGYUN 1C DEB",
        "meta_object_id": "1999-025CU",
        "meta_epoch": "2025-12-05T20:02:58.167744",
        "meta_mean_motion": 14.62035616,
        "meta_eccentricity": 0.00369912,
        "meta_inclination": 98.6202,
        "meta_ra_of_asc_node": 88.6533,
        "meta_arg_of_pericenter": 0.1068,
        "meta_mean_anomaly": 123.3164,
        "meta_ephemeris_type": 0,
        "meta_classification_type": "U",
        "meta_norad_cat_id": 29802,
        "meta_element_set_no": 999,
        "meta_rev_at_epoch": 98372,
        "meta_bstar": 0.0048088578,
        "meta_mean_motion_dot": 0.00024395,
        "meta_mean_motion_ddot": 0,
        "tle_line1": "1 29802U 99025CU  25339.83539546  .00024395  00000+0  48089-2 0  9994",
        "tle_line2": "2 29802  98.6202  88.6533 0036991   0.1068 123.3164 14.62035616983729"
      },
      "geometry": {
        "type": "Point",
        "coordinates": [
          120.0973964999665,
          -73.1153120596942
        ]
      }
    },
    {
      "type": "Feature",
      "properties": {
        "norad_id": 29804,
        "name": "FENGYUN 1C DEB",
        "group": "fengyun-1c-debris",
        "lat": -38.77847164370597,
        "lon": -3.234858856480182,
        "alt_km": 814.6548371810477,
        "timestamp": "2025-12-07T05:38:10.175665+00:00",
        "meta_object_name": "FENGYUN 1C DEB",
        "meta_object_id": "1999-025CW",
        "meta_epoch": "2025-12-06T11:45:03.906720",
        "meta_mean_motion": 14.04318061,
        "meta_eccentricity": 0.00974541,
        "meta_inclination": 98.8055,
        "meta_ra_of_asc_node": 348.889,
        "meta_arg_of_pericenter": 319.4352,
        "meta_mean_anomaly": 195.9002,
        "meta_ephemeris_type": 0,
        "meta_classification_type": "U",
        "meta_norad_cat_id": 29804,
        "meta_element_set_no": 999,
        "meta_rev_at_epoch": 96806,
        "meta_bstar": 0.00028398579,
        "meta_mean_motion_dot": 4.28e-06,
        "meta_mean_motion_ddot": 0,
        "tle_line1": "1 29804U 99025CW  25340.48962855  .00000428  00000+0  28399-3 0  9996",
        "tle_line2": "2 29804  98.8055 348.8890 0097454 319.4352 195.9002 14.04318061968069"
      },
      "geometry": {
        "type": "Point",
        "coordinates": [
          -3.234858856480182,
          -38.77847164370597
        ]
      }
    },
    {
      "type": "Feature",
      "properties": {
        "norad_id": 29805,
        "name": "FENGYUN 1C DEB",
        "group": "fengyun-1c-debris",
        "lat": 29.256052180850492,
        "lon": 27.219506329327256,
        "alt_km": 1101.9289224675813,
        "timestamp": "2025-12-07T05:38:10.175675+00:00",
        "meta_object_name": "FENGYUN 1C DEB",
        "meta_object_id": "1999-025CX",
        "meta_epoch": "2025-12-06T03:14:52.248480",
        "meta_mean_motion": 13.72653353,
        "meta_eccentricity": 0.01877681,
        "meta_inclination": 99.456,
        "meta_ra_of_asc_node": 31.4907,
        "meta_arg_of_pericenter": 246.9954,
        "meta_mean_anomaly": 111.1292,
        "meta_ephemeris_type": 0,
        "meta_classification_type": "U",
        "meta_norad_cat_id": 29805,
        "meta_element_set_no": 999,
        "meta_rev_at_epoch": 94612,
        "meta_bstar": 0.00028679835,
        "meta_mean_motion_dot": 2.53e-06,
        "meta_mean_motion_ddot": 0,
        "tle_line1": "1 29805U 99025CX  25340.13532695  .00000253  00000+0  28680-3 0  9993",
        "tle_line2": "2 29805  99.4560  31.4907 0187768 246.9954 111.1292 13.72653353946126"
      },
      "geometry": {
        "type": "Point",
        "coordinates": [
          27.219506329327256,
          29.256052180850492
        ]
      }
    },
    {
      "type": "Feature",
      "properties": {
        "norad_id": 29806,
        "name": "FENGYUN 1C DEB",
        "group": "fengyun-1c-debris",
        "lat": 3.2091695233414215,
        "lon": 177.67371557278753,
        "alt_km": 855.5073934263173,
        "timestamp": "2025-12-07T05:38:10.175685+00:00",
        "meta_object_name": "FENGYUN 1C DEB",
        "meta_object_id": "1999-025CY",
        "meta_epoch": "2025-12-06T14:05:03.378624",
        "meta_mean_motion": 14.11988505,
        "meta_eccentricity": 0.00274692,
        "meta_inclination": 98.7132,
        "meta_ra_of_asc_node": 356.5515,
        "meta_arg_of_pericenter": 269.9752,
        "meta_mean_anomaly": 214.9527,
        "meta_ephemeris_type": 0,
        "meta_classification_type": "U",
        "meta_norad_cat_id": 29806,
        "meta_element_set_no": 999,
        "meta_rev_at_epoch": 97052,
        "meta_bstar": 0.00090586116,
        "meta_mean_motion_dot": 1.621e-05,
        "meta_mean_motion_ddot": 0,
        "tle_line1": "1 29806U 99025CY  25340.58684466  .00001621  00000+0  90586-3 0  9991",
        "tle_line2": "2 29806  98.7132 356.5515 0027469 269.9752 214.9527 14.11988505970520"
      },
      "geometry": {
        "type": "Point",
        "coordinates": [
          177.67371557278753,
          3.2091695233414215
        ]
      }
    }
  ]
}